{"type": "FeatureCollection", "features": [ {"type": "Feature", "properties": {"norad_id": 40664, "name": "SKY MEXICO-1", "group": "intelsat", "lat": 0.031240842414434467, "lon": 81.7537274345493, "alt_km": 35795.77835371813, "timestamp": "2025-12-17T04:57:44.067758+00:00", "meta": {"OBJECT_NAME": "SKY MEXICO-1", "OBJECT_ID": "2015-026B", "EPOCH": "2025-12-16T09:33:29.684736", "MEAN_MOTION": 1.0027154, "ECCENTRICITY": 0.00024006, "INCLINATION": 0.0194, "RA_OF_ASC_NODE": 301.9288, "ARG_OF_PERICENTER": 339.69, "MEAN_ANOMALY": 228.2818, "EPHEMERIS_TYPE": 0, "CLASSIFICATION_TYPE": "U", "NORAD_CAT_ID": 40664, "ELEMENT_SET_NO": 999, "REV_AT_EPOCH": 3862, "BSTAR": 0, "MEAN_MOTION_DOT": -2.11e-06, "MEAN_MOTION_DDOT": 0}, "tle": {"line1": "1 40664U 15026B   25350.39826024 -.00000211  00000+0  00000+0 0  9996", "line2": "2 40664   0.0194 301.9288 0002400 339.6900 228.2818  1.00271540 38623"}}, "geometry": {"type": "Point", "coordinates": [81.7537274345493, 0.031240842414434467]}}, {"type": "Feature", "properties": {"norad_id": 40874, "name": "INTELSAT 34 (IS-34)", "group": "intelsat", "lat": 0.022168663075919862, "lon": 105.0025777534987, "alt_km": 35784.350956265436, "timestamp": "2025-12-17T04:57:44.067769+00:00", "meta": {"OBJECT_NAME": "INTELSAT 34 (IS-34)", "OBJECT_ID": "2015-039A", "EPOCH": "2025-12-16T16:30:50.428224", "MEAN_MOTION": 1.00270545, "ECCENTRICITY": 6.957e-05, "INCLINATION": 0.0134, "RA_OF_ASC_NODE": 312.2249, "ARG_OF_PERICENTER": 195.9372, "MEAN_ANOMALY": 129.6257, "EPHEMERIS_TYPE": 0, "CLASSIFICATION_TYPE": "U", "NORAD_CAT_ID": 40874, "ELEMENT_SET_NO": 999, "REV_AT_EPOCH": 3779, "BSTAR": 0, "MEAN_MOTION_DOT": -2.61e-06, "MEAN_MOTION_DDOT": 0}, "tle": {"line1": "1 40874U 15039A   25350.68808366 -.00000261  00000+0  00000+0 0  9999", "line2": "2 40874   0.0134 312.2249 0000695 195.9372 129.6257  1.00270545 37794"}}, "geometry": {"type": "Point", "coordinates": [105.0025777534987, 0.022168663075919862]}}, {"type": "Feature", "properties": {"norad_id": 41581, "name": "INTELSAT 31 (IS-31)", "group": "intelsat", "lat": 0.02350841718713122, "lon": 65.4488254858229, "alt_km": 35792.346206879876, "timestamp": "2025-12-17T04:57:44.067780+00:00", "meta": {"OBJECT_NAME": "INTELSAT 31 (IS-31)", "OBJECT_ID": "2016-035A", "EPOCH": "2025-12-16T09:29:38.777280", "MEAN_MOTION": 1.00273672, "ECCENTRICITY": 0.00019671, "INCLINATION": 0.0195, "RA_OF_ASC_NODE": 272.5093, "ARG_OF_PERICENTER": 297.3574, "MEAN_ANOMALY": 282.7801, "EPHEMERIS_TYPE": 0, "CLASSIFICATION_TYPE": "U", "NORAD_CAT_ID": 41581, "ELEMENT_SET_NO": 999, "REV_AT_EPOCH": 3485, "BSTAR": 0, "MEAN_MOTION_DOT": -1.28e-06, "MEAN_MOTION_DDOT": 0}, "tle": {"line1": "1 41581U 16035A   25350.39558770 -.00000128  00000+0  00000+0 0  9993", "line2": "2 41581   0.0195 272.5093 0001967 297.3574 282.7801  1.00273672 34850"}}, "geometry": {"type": "Point", "coordinates": [65.4488254858229, 0.02350841718713122]}}, {"type": "Feature", "properties": {"norad_id": 41747, "name": "INTELSAT 36 (IS-36)", "group": "intelsat", "lat": -0.029627737649799583, "lon": -131.02077915834008, "alt_km": 35787.11037981268, "timestamp": "2025-12-17T04:57:44.067790+00:00", "meta": {"OBJECT_NAME": "INTELSAT 36 (IS-36)", "OBJECT_ID": "2016-053A", "EPOCH": "2025-12-16T18:49:07.186944", "MEAN_MOTION": 1.00271137, "ECCENTRICITY": 0.00011651, "INCLINATION": 0.0113, "RA_OF_ASC_NODE": 0.976, "ARG_OF_PERICENTER": 328.2482, "MEAN_ANOMALY": 107.2108, "EPHEMERIS_TYPE": 0, "CLASSIFICATION_TYPE": "U", "NORAD_CAT_ID": 41747, "ELEMENT_SET_NO": 999, "REV_AT_EPOCH": 3411, "BSTAR": 0, "MEAN_MOTION_DOT": 0, "MEAN_MOTION_DDOT": 0}, "tle": {"line1": "1 41747U 16053A   25350.78411096  .00000000  00000+0  00000+0 0  9997", "line2": "2 41747   0.0113   0.9760 0001165 328.2482 107.2108  1.00271137 34114"}}, "geometry": {"type": "Point", "coordinates": [-131.02077915834008, -0.029627737649799583]}}, {"type": "Feature", "properties": {"norad_id": 41945, "name": "INTELSAT 32E (IS-32E)", "group": "intelsat", "lat": 0.03055468868733591, "lon": 117.33892977067516, "alt_km": 35786.076541895076, "timestamp": "2025-12-17T04:57:44.067800+00:00", "meta": {"OBJECT_NAME": "INTELSAT 32E (IS-32E)", "OBJECT_ID": "2017-007B", "EPOCH": "2025-12-16T04:35:28.228416", "MEAN_MOTION": 1.00271613, "ECCENTRICITY": 5.242e-05, "INCLINATION": 0.0304, "RA_OF_ASC_NODE": 75.3547, "ARG_OF_PERICENTER": 315.6867, "MEAN_ANOMALY": 79.7377, "EPHEMERIS_TYPE": 0, "CLASSIFICATION_TYPE": "U", "NORAD_CAT_ID": 41945, "ELEMENT_SET_NO": 999, "REV_AT_EPOCH": 3239, "BSTAR": 0, "MEAN_MOTION_DOT": -2.46e-06, "MEAN_MOTION_DDOT": 0}, "tle": {"line1": "1 41945U 17007B   25350.19129894 -.00000246  00000+0  00000+0 0  9997", "line2": "2 41945   0.0304  75.3547 0000524 315.6867  79.7377  1.00271613 32398"}}, "geometry": {"type": "Point", "coordinates": [117.33892977067516, 0.03055468868733591]}}, {"type": "Feature", "properties": {"norad_id": 42818, "name": "INTELSAT 35E (IS-35E)", "group": "intelsat", "lat": 0.0358028489847359, "lon": 125.99424477860003, "alt_km": 35792.78599636569, "timestamp": "2025-12-17T04:57:44.067811+00:00", "meta": {"OBJECT_NAME": "INTELSAT 35E (IS-35E)", "OBJECT_ID": "2017-041A", "EPOCH": "2025-12-16T16:37:04.829664", "MEAN_MOTION": 1.00270275, "ECCENTRICITY": 0.00018409, "INCLINATION": 0.0251, "RA_OF_ASC_NODE": 358.2712, "ARG_OF_PERICENTER": 270.9711, "MEAN_ANOMALY": 31.1092, "EPHEMERIS_TYPE": 0, "CLASSIFICATION_TYPE": "U", "NORAD_CAT_ID": 42818, "ELEMENT_SET_NO": 999, "REV_AT_EPOCH": 3098, "BSTAR": 0, "MEAN_MOTION_DOT": 0, "MEAN_MOTION_DDOT": 0}, "tle": {"line1": "1 42818U 17041A   25350.69241701  .00000000  00000+0  00000+0 0  9999", "line2": "2 42818   0.0251 358.2712 0001840 270.9711  31.1092  1.00270275 30981"}}, "geometry": {"type": "Point", "coordinates": [125.99424477860003, 0.0358028489847359]}}, {"type": "Feature", "properties": {"norad_id": 42950, "name": "INTELSAT 37E (IS-37E)", "group": "intelsat", "lat": 0.012715241790922817, "lon": 142.4783455541298, "alt_km": 35791.574727238505, "timestamp": "2025-12-17T04:57:44.067821+00:00", "meta": {"OBJECT_NAME": "INTELSAT 37E (IS-37E)", "OBJECT_ID": "2017-059A", "EPOCH": "2025-12-16T16:41:41.887680", "MEAN_MOTION": 1.00271305, "ECCENTRICITY": 0.00029525, "INCLINATION": 0.0011, "RA_OF_ASC_NODE": 15.7899, "ARG_OF_PERICENTER": 241.9436, "MEAN_ANOMALY": 60.2756, "EPHEMERIS_TYPE": 0, "CLASSIFICATION_TYPE": "U", "NORAD_CAT_ID": 42950, "ELEMENT_SET_NO": 999, "REV_AT_EPOCH": 3023, "BSTAR": 0, "MEAN_MOTION_DOT": -1.17e-06, "MEAN_MOTION_DDOT": 0}, "tle": {"line1": "1 42950U 17059A   25350.69562370 -.00000117  00000+0  00000+0 0  9993", "line2": "2 42950   0.0011  15.7899 0002952 241.9436  60.2756  1.00271305 30233"}}, "geometry": {"type": "Point", "coordinates": [142.4783455541298, 0.012715241790922817]}}, {"type": "Feature", "properties": {"norad_id": 43632, "name": "AZERSPACE 2 (IS-38)", "group": "intelsat", "lat": -0.03209737892691347, "lon": -154.3913931668076, "alt_km": 35783.77404137798, "timestamp": "2025-12-17T04:57:44.067832+00:00", "meta": {"OBJECT_NAME": "AZERSPACE 2 (IS-38)", "OBJECT_ID": "2018-074A", "EPOCH": "2025-12-16T18:42:30.320640", "MEAN_MOTION": 1.00271781, "ECCENTRICITY": 0.00012112, "INCLINATION": 0.0171, "RA_OF_ASC_NODE": 333.513, "ARG_OF_PERICENTER": 296.0191, "MEAN_ANOMALY": 141.8726, "EPHEMERIS_TYPE": 0, "CLASSIFICATION_TYPE": "U", "NORAD_CAT_ID": 43632, "ELEMENT_SET_NO": 999, "REV_AT_EPOCH": 2661, "BSTAR": 0, "MEAN_MOTION_DOT": 1.61e-06, "MEAN_MOTION_DDOT": 0}, "tle": {"line1": "1 43632U 18074A   25350.77951760  .00000161  00000+0  00000+0 0  9991", "line2": "2 43632   0.0171 333.5130 0001211 296.0191 141.8726  1.00271781 26611"}}, "geometry": {"type": "Point", "coordinates": [-154.3913931668076, -0.03209737892691347]}}, {"type": "Feature", "properties": {"norad_id": 43633, "name": "HORIZONS-3E", "group": "intelsat", "lat": 0.02388482992033142, "lon": -30.508938219923504, "alt_km": 35783.497179620834, "timestamp": "2025-12-17T04:57:44.067842+00:00", "meta": {"OBJECT_NAME": "HORIZONS-3E", "OBJECT_ID": "2018-074B", "EPOCH": "2025-12-16T14:09:40.218048", "MEAN_MOTION": 1.00269891, "ECCENTRICITY": 8.37e-05, "INCLINATION": 0.0492, "RA_OF_ASC_NODE": 188.1186, "ARG_OF_PERICENTER": 112.8726, "MEAN_ANOMALY": 165.8874, "EPHEMERIS_TYPE": 0, "CLASSIFICATION_TYPE": "U", "NORAD_CAT_ID": 43633, "ELEMENT_SET_NO": 999, "REV_AT_EPOCH": 2651, "BSTAR": 0, "MEAN_MOTION_DOT": -7e-08, "MEAN_MOTION_DDOT": 0}, "tle": {"line1": "1 43633U 18074B   25350.59004882 -.00000007  00000+0  00000+0 0  9996", "line2": "2 43633   0.0492 188.1186 0000837 112.8726 165.8874  1.00269891 26513"}}, "geometry": {"type": "Point", "coordinates": [-30.508938219923504, 0.02388482992033142]}}, {"type": "Feature", "properties": {"norad_id": 44333, "name": "AT&T T-16", "group": "intelsat", "lat": 0.01669312981298933, "lon": 59.638443209061606, "alt_km": 35785.74204518258, "timestamp": "2025-12-17T04:57:44.067852+00:00", "meta": {"OBJECT_NAME": "AT&T T-16", "OBJECT_ID": "2019-034A", "EPOCH": "2025-12-16T16:18:06.646176", "MEAN_MOTION": 1.00269796, "ECCENTRICITY": 7.975e-05, "INCLINATION": 0.0222, "RA_OF_ASC_NODE": 61.0457, "ARG_OF_PERICENTER": 73.1825, "MEAN_ANOMALY": 95.0089, "EPHEMERIS_TYPE": 0, "CLASSIFICATION_TYPE": "U", "NORAD_CAT_ID": 44333, "ELEMENT_SET_NO": 999, "REV_AT_EPOCH": 2380, "BSTAR": 0, "MEAN_MOTION_DOT": -9.1e-07, "MEAN_MOTION_DDOT": 0}, "tle": {"line1": "1 44333U 19034A   25350.67924359 -.00000091  00000+0  00000+0 0  9993", "line2": "2 44333   0.0222  61.0457 0000797  73.1825  95.0089  1.00269796 23801"}}, "geometry": {"type": "Point", "coordinates": [59.638443209061606, 0.01669312981298933]}}]}